KUIPER-00071            
1 64818U 25151C   25208.13563577  .00021926  00000+0  63339-3 0  9991
2 64818  51.8783 235.2092 0005230 176.5386 183.5637 15.35573889  1659
KUIPER-00072            
1 64819U 25151D   25208.07284926 -.00627999  00000+0 -19842-1 0  9995
2 64819  51.8771 235.5324 0002731 156.4949 203.6162 15.34492823  1657
KUIPER-00073            
1 64820U 25151E   25208.13719535  .00021808  00000+0  63420-3 0  9991
2 64820  51.8786 235.2209 0005255 184.8943 175.1992 15.35367022  2846
KUIPER-00074            
1 64821U 25151F   25208.13684177  .00021473  00000+0  62387-3 0  9994
2 64821  51.8773 235.2113 0005184 185.3414 174.7517 15.35406169  1660
KUIPER-00075            
1 64822U 25151G   25208.13617760  .00033354  00000+0  96020-3 0  9991
2 64822  51.8787 235.2137 0004434 178.9809 181.1187 15.35451230  1669
KUIPER-00076            
1 64823U 25151H   25207.91668981  .00056868  00000+0  16358-2 0  9998
2 64823  51.8774 236.2778 0005069 186.3096  33.2478 15.35228557  2872
KUIPER-00077            
1 64824U 25151J   25208.13868593  .00024461  00000+0  71552-3 0  9997
2 64824  51.8786 235.2299 0005547 192.1471 167.9382 15.35111626  1658
KUIPER-00078            
1 64825U 25151K   25208.13846656  .00021195  00000+0  62104-3 0  9998
2 64825  51.8779 235.2249 0005692 195.0668 165.0149 15.35145641  1662
