<?xml version="1.0" encoding="UTF-8"?>
<ndm xmlns:xsi="http://www.w3.org/2001/XMLSchema-instance" xsi:noNamespaceSchemaLocation="https://sanaregistry.org/r/ndmxml_unqualified/ndmxml-2.0.0-master-2.0.xsd">
<omm id="CCSDS_OMM_VERS" version="2.0">
<header><CREATION_DATE/><ORIGINATOR/></header><body><segment><metadata><OBJECT_NAME>KUIPER-00071</OBJECT_NAME><OBJECT_ID>2025-151C</OBJECT_ID><CENTER_NAME>EARTH</CENTER_NAME><REF_FRAME>TEME</REF_FRAME><TIME_SYSTEM>UTC</TIME_SYSTEM><MEAN_ELEMENT_THEORY>SGP4</MEAN_ELEMENT_THEORY></metadata><data><meanElements><EPOCH>2025-07-27T03:15:18.930528</EPOCH><MEAN_MOTION>15.35573889</MEAN_MOTION><ECCENTRICITY>.000523</ECCENTRICITY><INCLINATION>51.8783</INCLINATION><RA_OF_ASC_NODE>235.2092</RA_OF_ASC_NODE><ARG_OF_PERICENTER>176.5386</ARG_OF_PERICENTER><MEAN_ANOMALY>183.5637</MEAN_ANOMALY></meanElements><tleParameters><EPHEMERIS_TYPE>0</EPHEMERIS_TYPE><CLASSIFICATION_TYPE>U</CLASSIFICATION_TYPE><NORAD_CAT_ID>64818</NORAD_CAT_ID><ELEMENT_SET_NO>999</ELEMENT_SET_NO><REV_AT_EPOCH>165</REV_AT_EPOCH><BSTAR>.63339E-3</BSTAR><MEAN_MOTION_DOT>.21926E-3</MEAN_MOTION_DOT><MEAN_MOTION_DDOT>0</MEAN_MOTION_DDOT></tleParameters></data></segment></body></omm>
<omm id="CCSDS_OMM_VERS" version="2.0">
<header><CREATION_DATE/><ORIGINATOR/></header><body><segment><metadata><OBJECT_NAME>KUIPER-00072</OBJECT_NAME><OBJECT_ID>2025-151D</OBJECT_ID><CENTER_NAME>EARTH</CENTER_NAME><REF_FRAME>TEME</REF_FRAME><TIME_SYSTEM>UTC</TIME_SYSTEM><MEAN_ELEMENT_THEORY>SGP4</MEAN_ELEMENT_THEORY></metadata><data><meanElements><EPOCH>2025-07-27T01:44:54.176064</EPOCH><MEAN_MOTION>15.34492823</MEAN_MOTION><ECCENTRICITY>.0002731</ECCENTRICITY><INCLINATION>51.8771</INCLINATION><RA_OF_ASC_NODE>235.5324</RA_OF_ASC_NODE><ARG_OF_PERICENTER>156.4949</ARG_OF_PERICENTER><MEAN_ANOMALY>203.6162</MEAN_ANOMALY></meanElements><tleParameters><EPHEMERIS_TYPE>0</EPHEMERIS_TYPE><CLASSIFICATION_TYPE>U</CLASSIFICATION_TYPE><NORAD_CAT_ID>64819</NORAD_CAT_ID><ELEMENT_SET_NO>999</ELEMENT_SET_NO><REV_AT_EPOCH>165</REV_AT_EPOCH><BSTAR>-.19842E-1</BSTAR><MEAN_MOTION_DOT>-.627999E-2</MEAN_MOTION_DOT><MEAN_MOTION_DDOT>0</MEAN_MOTION_DDOT></tleParameters></data></segment></body></omm>
<omm id="CCSDS_OMM_VERS" version="2.0">
<header><CREATION_DATE/><ORIGINATOR/></header><body><segment><metadata><OBJECT_NAME>KUIPER-00073</OBJECT_NAME><OBJECT_ID>2025-151E</OBJECT_ID><CENTER_NAME>EARTH</CENTER_NAME><REF_FRAME>TEME</REF_FRAME><TIME_SYSTEM>UTC</TIME_SYSTEM><MEAN_ELEMENT_THEORY>SGP4</MEAN_ELEMENT_THEORY></metadata><data><meanElements><EPOCH>2025-07-27T03:17:33.678240</EPOCH><MEAN_MOTION>15.35367022</MEAN_MOTION><ECCENTRICITY>.0005255</ECCENTRICITY><INCLINATION>51.8786</INCLINATION><RA_OF_ASC_NODE>235.2209</RA_OF_ASC_NODE><ARG_OF_PERICENTER>184.8943</ARG_OF_PERICENTER><MEAN_ANOMALY>175.1992</MEAN_ANOMALY></meanElements><tleParameters><EPHEMERIS_TYPE>0</EPHEMERIS_TYPE><CLASSIFICATION_TYPE>U</CLASSIFICATION_TYPE><NORAD_CAT_ID>64820</NORAD_CAT_ID><ELEMENT_SET_NO>999</ELEMENT_SET_NO><REV_AT_EPOCH>284</REV_AT_EPOCH><BSTAR>.6342E-3</BSTAR><MEAN_MOTION_DOT>.21808E-3</MEAN_MOTION_DOT><MEAN_MOTION_DDOT>0</MEAN_MOTION_DDOT></tleParameters></data></segment></body></omm>
<omm id="CCSDS_OMM_VERS" version="2.0">
<header><CREATION_DATE/><ORIGINATOR/></header><body><segment><metadata><OBJECT_NAME>KUIPER-00074</OBJECT_NAME><OBJECT_ID>2025-151F</OBJECT_ID><CENTER_NAME>EARTH</CENTER_NAME><REF_FRAME>TEME</REF_FRAME><TIME_SYSTEM>UTC</TIME_SYSTEM><MEAN_ELEMENT_THEORY>SGP4</MEAN_ELEMENT_THEORY></metadata><data><meanElements><EPOCH>2025-07-27T03:17:03.128928</EPOCH><MEAN_MOTION>15.35406169</MEAN_MOTION><ECCENTRICITY>.0005184</ECCENTRICITY><INCLINATION>51.8773</INCLINATION><RA_OF_ASC_NODE>235.2113</RA_OF_ASC_NODE><ARG_OF_PERICENTER>185.3414</ARG_OF_PERICENTER><MEAN_ANOMALY>174.7517</MEAN_ANOMALY></meanElements><tleParameters><EPHEMERIS_TYPE>0</EPHEMERIS_TYPE><CLASSIFICATION_TYPE>U</CLASSIFICATION_TYPE><NORAD_CAT_ID>64821</NORAD_CAT_ID><ELEMENT_SET_NO>999</ELEMENT_SET_NO><REV_AT_EPOCH>166</REV_AT_EPOCH><BSTAR>.62387E-3</BSTAR><MEAN_MOTION_DOT>.21473E-3</MEAN_MOTION_DOT><MEAN_MOTION_DDOT>0</MEAN_MOTION_DDOT></tleParameters></data></segment></body></omm>
<omm id="CCSDS_OMM_VERS" version="2.0">
<header><CREATION_DATE/><ORIGINATOR/></header><body><segment><metadata><OBJECT_NAME>KUIPER-00075</OBJECT_NAME><OBJECT_ID>2025-151G</OBJECT_ID><CENTER_NAME>EARTH</CENTER_NAME><REF_FRAME>TEME</REF_FRAME><TIME_SYSTEM>UTC</TIME_SYSTEM><MEAN_ELEMENT_THEORY>SGP4</MEAN_ELEMENT_THEORY></metadata><data><meanElements><EPOCH>2025-07-27T03:16:05.744640</EPOCH><MEAN_MOTION>15.35451230</MEAN_MOTION><ECCENTRICITY>.0004434</ECCENTRICITY><INCLINATION>51.8787</INCLINATION><RA_OF_ASC_NODE>235.2137</RA_OF_ASC_NODE><ARG_OF_PERICENTER>178.9809</ARG_OF_PERICENTER><MEAN_ANOMALY>181.1187</MEAN_ANOMALY></meanElements><tleParameters><EPHEMERIS_TYPE>0</EPHEMERIS_TYPE><CLASSIFICATION_TYPE>U</CLASSIFICATION_TYPE><NORAD_CAT_ID>64822</NORAD_CAT_ID><ELEMENT_SET_NO>999</ELEMENT_SET_NO><REV_AT_EPOCH>166</REV_AT_EPOCH><BSTAR>.9602E-3</BSTAR><MEAN_MOTION_DOT>.33354E-3</MEAN_MOTION_DOT><MEAN_MOTION_DDOT>0</MEAN_MOTION_DDOT></tleParameters></data></segment></body></omm>
<omm id="CCSDS_OMM_VERS" version="2.0">
<header><CREATION_DATE/><ORIGINATOR/></header><body><segment><metadata><OBJECT_NAME>KUIPER-00076</OBJECT_NAME><OBJECT_ID>2025-151H</OBJECT_ID><CENTER_NAME>EARTH</CENTER_NAME><REF_FRAME>TEME</REF_FRAME><TIME_SYSTEM>UTC</TIME_SYSTEM><MEAN_ELEMENT_THEORY>SGP4</MEAN_ELEMENT_THEORY></metadata><data><meanElements><EPOCH>2025-07-26T22:00:01.999584</EPOCH><MEAN_MOTION>15.35228557</MEAN_MOTION><ECCENTRICITY>.0005069</ECCENTRICITY><INCLINATION>51.8774</INCLINATION><RA_OF_ASC_NODE>236.2778</RA_OF_ASC_NODE><ARG_OF_PERICENTER>186.3096</ARG_OF_PERICENTER><MEAN_ANOMALY>33.2478</MEAN_ANOMALY></meanElements><tleParameters><EPHEMERIS_TYPE>0</EPHEMERIS_TYPE><CLASSIFICATION_TYPE>U</CLASSIFICATION_TYPE><NORAD_CAT_ID>64823</NORAD_CAT_ID><ELEMENT_SET_NO>999</ELEMENT_SET_NO><REV_AT_EPOCH>287</REV_AT_EPOCH><BSTAR>.16358E-2</BSTAR><MEAN_MOTION_DOT>.56868E-3</MEAN_MOTION_DOT><MEAN_MOTION_DDOT>0</MEAN_MOTION_DDOT></tleParameters></data></segment></body></omm>
<omm id="CCSDS_OMM_VERS" version="2.0">
<header><CREATION_DATE/><ORIGINATOR/></header><body><segment><metadata><OBJECT_NAME>KUIPER-00077</OBJECT_NAME><OBJECT_ID>2025-151J</OBJECT_ID><CENTER_NAME>EARTH</CENTER_NAME><REF_FRAME>TEME</REF_FRAME><TIME_SYSTEM>UTC</TIME_SYSTEM><MEAN_ELEMENT_THEORY>SGP4</MEAN_ELEMENT_THEORY></metadata><data><meanElements><EPOCH>2025-07-27T03:19:42.464352</EPOCH><MEAN_MOTION>15.35111626</MEAN_MOTION><ECCENTRICITY>.0005547</ECCENTRICITY><INCLINATION>51.8786</INCLINATION><RA_OF_ASC_NODE>235.2299</RA_OF_ASC_NODE><ARG_OF_PERICENTER>192.1471</ARG_OF_PERICENTER><MEAN_ANOMALY>167.9382</MEAN_ANOMALY></meanElements><tleParameters><EPHEMERIS_TYPE>0</EPHEMERIS_TYPE><CLASSIFICATION_TYPE>U</CLASSIFICATION_TYPE><NORAD_CAT_ID>64824</NORAD_CAT_ID><ELEMENT_SET_NO>999</ELEMENT_SET_NO><REV_AT_EPOCH>165</REV_AT_EPOCH><BSTAR>.71552E-3</BSTAR><MEAN_MOTION_DOT>.24461E-3</MEAN_MOTION_DOT><MEAN_MOTION_DDOT>0</MEAN_MOTION_DDOT></tleParameters></data></segment></body></omm>
<omm id="CCSDS_OMM_VERS" version="2.0">
<header><CREATION_DATE/><ORIGINATOR/></header><body><segment><metadata><OBJECT_NAME>KUIPER-00078</OBJECT_NAME><OBJECT_ID>2025-151K</OBJECT_ID><CENTER_NAME>EARTH</CENTER_NAME><REF_FRAME>TEME</REF_FRAME><TIME_SYSTEM>UTC</TIME_SYSTEM><MEAN_ELEMENT_THEORY>SGP4</MEAN_ELEMENT_THEORY></metadata><data><meanElements><EPOCH>2025-07-27T03:19:23.510784</EPOCH><MEAN_MOTION>15.35145641</MEAN_MOTION><ECCENTRICITY>.0005692</ECCENTRICITY><INCLINATION>51.8779</INCLINATION><RA_OF_ASC_NODE>235.2249</RA_OF_ASC_NODE><ARG_OF_PERICENTER>195.0668</ARG_OF_PERICENTER><MEAN_ANOMALY>165.0149</MEAN_ANOMALY></meanElements><tleParameters><EPHEMERIS_TYPE>0</EPHEMERIS_TYPE><CLASSIFICATION_TYPE>U</CLASSIFICATION_TYPE><NORAD_CAT_ID>64825</NORAD_CAT_ID><ELEMENT_SET_NO>999</ELEMENT_SET_NO><REV_AT_EPOCH>166</REV_AT_EPOCH><BSTAR>.62104E-3</BSTAR><MEAN_MOTION_DOT>.21195E-3</MEAN_MOTION_DOT><MEAN_MOTION_DDOT>0</MEAN_MOTION_DDOT></tleParameters></data></segment></body></omm>

</ndm>
